NORAD_CAT_ID,OBJECT_NAME,OBJECT_TYPE,EPOCH,MEAN_MOTION,ECCENTRICITY,INCLINATION,RA_OF_ASC_NODE,ARG_OF_PERICENTER,MEAN_ANOMALY,BSTAR,MEAN_MOTION_DOT,MEAN_MOTION_DDOT,TLE_LINE0,TLE_LINE1,TLE_LINE2,SEMIMAJOR_AXIS,PERIOD,APOGEE,PERIGEE,DECAYED
55434.0,STARLINK-5621,PAYLOAD,2024-08-11 02:55:31,14.98343218,0.0002811,70.0023,115.6948,270.049,90.0347,0.00046563,5.469e-05,0.0,0 STARLINK-5621,1 55434U 23014AV  24224.12189453  .00005469  00000-0  46563-3 0  9999,2 55434  70.0023 115.6948 0002811 270.0490  90.0347 14.98343218 83910,6950.152,96.106,573.971,570.063,0.0
55434.0,STARLINK-5621,PAYLOAD,2024-08-11 22:09:08,14.98339345,0.0002853,70.0018,113.6719,267.9229,92.1603,0.00026837,3.111e-05,0.0,0 STARLINK-5621,1 55434U 23014AV  24224.92301494  .00003111  00000-0  26837-3 0  9992,2 55434  70.0018 113.6719 0002853 267.9229  92.1603 14.98339345 84970,6950.164,96.106,574.012,570.046,0.0
55434.0,STARLINK-5621,PAYLOAD,2024-08-12 02:57:32,14.98350358,0.0002728,70.002,113.1681,268.713,91.3716,0.0005219,6.143e-05,0.0,0 STARLINK-5621,1 55434U 23014AV  24225.12329028  .00006143  00000-0  52190-3 0  9997,2 55434  70.0020 113.1681 0002728 268.7130  91.3716 14.98350358 84060,6950.13,96.106,573.891,570.099,0.0
55434.0,STARLINK-5621,PAYLOAD,2024-08-12 09:22:04,14.98343751,0.0003214,70.0053,112.4943,264.3468,95.7324,0.00024236,2.801e-05,0.0,0 STARLINK-5621,1 55434U 23014AV  24225.39033191  .00002801  00000-0  24236-3 0  9996,2 55434  70.0053 112.4943 0003214 264.3468  95.7324 14.98343751 84103,6950.15,96.106,574.249,569.782,0.0
55434.0,STARLINK-5621,PAYLOAD,2024-08-12 22:11:08,14.98347594,0.0002633,70.0022,111.1475,267.0348,93.0509,0.00045062,5.29e-05,0.0,0 STARLINK-5621,1 55434U 23014AV  24225.92440859  .00005290  00000-0  45062-3 0  9993,2 55434  70.0022 111.1475 0002633 267.0348  93.0509 14.98347594 85124,6950.138,96.106,573.833,570.174,0.0
55434.0,STARLINK-5621,PAYLOAD,2024-08-13 09:24:06,14.98305631,0.0002799,70.0015,109.9689,282.5441,77.5405,-0.0009426,-0.00011315,0.0,0 STARLINK-5621,1 55434U 23014AV  24226.39173761 -.00011315  00000-0 -94260-3 0  9991,2 55434  70.0015 109.9689 0002799 282.5441  77.5405 14.98305631 84258,6950.268,96.109,574.079,570.188,0.0
55434.0,STARLINK-5621,PAYLOAD,2024-08-13 22:13:12,14.98278377,0.0002613,70.0026,108.6239,273.9624,86.1237,-0.0010573,-0.00012669,0.0,0 STARLINK-5621,1 55434U 23014AV  24226.92583910 -.00012669  00000-0 -10573-2 0  9998,2 55434  70.0026 108.6239 0002613 273.9624  86.1237 14.98278377 85277,6950.353,96.11,574.034,570.401,0.0
55434.0,STARLINK-5621,PAYLOAD,2024-08-14 09:26:08,14.98320458,0.0002961,70.0012,107.4436,273.7484,86.3336,0.0010868,0.00012895,0.0,0 STARLINK-5621,1 55434U 23014AV  24227.39315831  .00012895  00000-0  10868-2 0  9991,2 55434  70.0012 107.4436 0002961 273.7484  86.3336 14.98320458 84400,6950.222,96.108,574.145,570.029,0.0
55434.0,STARLINK-5621,PAYLOAD,2024-08-14 22:15:13,14.9834837,0.000316,70.0014,106.0975,268.9278,91.1519,0.0010405,0.0001235,0.0,0 STARLINK-5621,1 55434U 23014AV  24227.92723580  .00012350  00000-0  10405-2 0  9997,2 55434  70.0014 106.0975 0003160 268.9278  91.1519 14.98348370 85427,6950.136,96.106,574.197,569.805,0.0
55434.0,STARLINK-5621,PAYLOAD,2024-08-15 01:27:29,14.98355769,0.0003108,70.0016,105.7608,270.3083,89.7719,0.0011163,0.00013261,0.0,0 STARLINK-5621,1 55434U 23014AV  24228.06075296  .00013261  00000-0  11163-2 0  9991,2 55434  70.0016 105.7608 0003108 270.3083  89.7719 14.98355769 84504,6950.113,96.105,574.138,569.818,0.0
55434.0,STARLINK-5621,PAYLOAD,2024-08-15 09:28:08,14.98356715,0.000315,70.0016,104.9189,270.7579,89.3219,0.00072254,8.545e-05,0.0,0 STARLINK-5621,1 55434U 23014AV  24228.39454793  .00008545  00000-0  72254-3 0  9998,2 55434  70.0016 104.9189 0003150 270.7579  89.3219 14.98356715 85492,6950.11,96.105,574.165,569.786,0.0
55434.0,STARLINK-5621,PAYLOAD,2024-08-15 22:17:13,14.98351398,0.0002801,70.003,103.5723,269.9895,90.0943,0.00027843,3.233e-05,0.0,0 STARLINK-5621,1 55434U 23014AV  24228.92862335  .00003233  00000-0  27843-3 0  9995,2 55434  70.0030 103.5723 0002801 269.9895  90.0943 14.98351398 85574,6950.127,96.106,573.938,570.045,0.0
55434.0,STARLINK-5621,PAYLOAD,2024-08-16 01:29:28,14.98353203,0.000299,70.002,103.2362,268.8229,91.2587,0.00012912,1.449e-05,0.0,0 STARLINK-5621,1 55434U 23014AV  24229.06214029  .00001449  00000-0  12912-3 0  9990,2 55434  70.0020 103.2362 0002990 268.8229  91.2587 14.98353203 84659,6950.121,96.106,574.064,569.908,0.0
55434.0,STARLINK-5621,PAYLOAD,2024-08-17 01:31:29,14.98337876,0.0002775,70.002,100.7111,270.2693,89.8148,0.00015072,1.706e-05,0.0,0 STARLINK-5621,1 55434U 23014AV  24230.06354064  .00001706  00000-0  15072-3 0  9992,2 55434  70.0020 100.7111 0002775 270.2693  89.8148 14.98337876 84807,6950.169,96.106,573.962,570.105,0.0
55434.0,STARLINK-5621,PAYLOAD,2024-08-18 01:33:31,14.98331905,0.0002584,70.0009,98.186,270.7818,89.3045,-2.3834e-06,-1.21e-06,0.0,0 STARLINK-5621,1 55434U 23014AV  24231.06494342 -.00000121  00000-0 -23834-5 0  9996,2 55434  70.0009  98.1860 0002584 270.7818  89.3045 14.98331905 84951,6950.187,96.107,573.848,570.256,0.0
55434.0,STARLINK-5621,PAYLOAD,2024-08-18 20:47:07,14.98334934,0.0003158,69.9999,96.1668,255.5441,104.5367,0.00011869,1.324e-05,0.0,0 STARLINK-5621,1 55434U 23014AV  24231.86605360  .00001324  00000-0  11869-3 0  9995,2 55434  69.9999  96.1668 0003158 255.5441 104.5367 14.98334934 85077,6950.178,96.107,574.237,569.848,0.0
55434.0,STARLINK-5621,PAYLOAD,2024-08-18 22:23:14,14.98337563,0.0002967,69.9998,95.9982,255.1449,104.9381,0.00014492,1.637e-05,0.0,0 STARLINK-5621,1 55434U 23014AV  24231.93281160  .00001637  00000-0  14492-3 0  9993,2 55434  69.9998  95.9982 0002967 255.1449 104.9381 14.98337563 86020,6950.17,96.107,574.097,569.972,0.0
55434.0,STARLINK-5621,PAYLOAD,2024-08-19 08:00:04,14.98326183,0.0002977,69.9989,94.9874,268.7684,91.3134,-2.1209e-05,-3.46e-06,0.0,0 STARLINK-5621,1 55434U 23014AV  24232.33338174 -.00000346  00000-0 -21209-4 0  9999,2 55434  69.9989  94.9874 0002977 268.7684  91.3134 14.98326183 85144,6950.205,96.107,574.139,570.001,0.0
55434.0,STARLINK-5621,PAYLOAD,2024-08-19 14:24:36,14.98327628,0.0003019,69.9987,94.314,268.2183,91.8631,4.1407e-05,4.01e-06,0.0,0 STARLINK-5621,1 55434U 23014AV  24232.60042101  .00000401  00000-0  41407-4 0  9993,2 55434  69.9987  94.3140 0003019 268.2183  91.8631 14.98327628 86120,6950.2,96.107,574.163,569.967,0.0
55434.0,STARLINK-5621,PAYLOAD,2024-08-20 00:01:24,14.98331461,0.0003031,69.9999,93.3042,268.8411,91.2401,4.6647e-05,4.64e-06,0.0,0 STARLINK-5621,1 55434U 23014AV  24233.00097676  .00000464  00000-0  46647-4 0  9995,2 55434  69.9999  93.3042 0003031 268.8411  91.2401 14.98331461 85248,6950.188,96.107,574.16,569.947,0.0
55434.0,STARLINK-5621,PAYLOAD,2024-08-20 08:02:04,14.98333143,0.000305,69.9997,92.4627,266.766,93.315,8.8466e-05,9.63e-06,0.0,0 STARLINK-5621,1 55434U 23014AV  24233.33477585  .00000963  00000-0  88466-4 0  9991,2 55434  69.9997  92.4627 0003050 266.7660  93.3150 14.98333143 86232,6950.183,96.107,574.168,569.928,0.0
55434.0,STARLINK-5621,PAYLOAD,2024-08-21 04:51:49,14.98338788,0.0003046,69.9999,90.274,268.7252,91.3559,0.00027154,3.149e-05,0.0,0 STARLINK-5621,1 55434U 23014AV  24234.20265352  .00003149  00000-0  27154-3 0  9990,2 55434  69.9999  90.2740 0003046 268.7252  91.3559 14.98338788 85421,6950.166,96.106,574.148,569.914,0.0
55434.0,STARLINK-5621,PAYLOAD,2024-08-21 11:16:21,14.98331052,0.0003165,69.9999,89.6007,266.1008,93.9789,9.6568e-05,1.059e-05,0.0,0 STARLINK-5621,1 55434U 23014AV  24234.46969619  .00001059  00000-0  96568-4 0  9999,2 55434  69.9999  89.6007 0003165 266.1008  93.9789 14.98331052 86401,6950.19,96.107,574.254,569.855,0.0
55434.0,STARLINK-5621,PAYLOAD,2024-08-21 17:40:54,14.98333956,0.0003076,69.9999,88.9273,267.8698,92.2109,0.00026707,3.095e-05,0.0,0 STARLINK-5621,1 55434U 23014AV  24234.73673666  .00003095  00000-0  26707-3 0  9992,2 55434  69.9999  88.9273 0003076 267.8698  92.2109 14.98333956 85505,6950.181,96.107,574.184,569.908,0.0
55434.0,STARLINK-5621,PAYLOAD,2024-08-21 20:53:10,14.98332025,0.0003072,69.9999,88.5906,268.8241,91.2566,0.00018667,2.135e-05,0.0,0 STARLINK-5621,1 55434U 23014AV  24234.87025696  .00002135  00000-0  18667-3 0  9991,2 55434  69.9999  88.5906 0003072 268.8241  91.2566 14.98332025 86463,6950.187,96.107,574.187,569.917,0.0
